0 DELTA 1 DEB
1 07069U 73086BM  13282.07449427  .00000961  00000-0  13418-2 0  7723
2 07069 102.7884 004.4426 0268112 133.8843 347.6522 13.47722161935756
0 DELTA 1 DEB
1 07069U 73086BM  13283.17494051  .00000946  00000-0  13218-2 0  7730
2 07069 102.7886 005.8463 0267941 131.4989 286.7818 13.47725235935901
0 DELTA 1 DEB
1 07069U 73086BM  13286.14532363  .00000909  00000-0  12752-2 0  7752
2 07069 102.7889 009.6359 0267390 125.0677 298.4918 13.47731100936305
0 DELTA 1 DEB
1 07069U 73086BM  13287.17835668  .00001007  00000-0  14031-2 0  7763
2 07069 102.7888 010.9540 0267174 122.8298 270.5806 13.47732570936449
0 DELTA 1 DEB
1 07069U 73086BM  13288.44720087  .00001349  00000-0  18508-2 0  7775
2 07069 102.7885 012.5728 0266990 120.0706 306.8060 13.47737205936615
0 DELTA 1 DEB
1 07069U 73086BM  13289.79452972  .00001090  00000-0  15125-2 0  7785
2 07069 102.7884 014.2918 0266714 117.1418 003.8416 13.47740827936797
0 DELTA 1 DEB
1 07069U 73086BM  13291.19336921  .00001057  00000-0  14700-2 0  7799
2 07069 102.7880 016.0765 0266467 114.0971 310.8254 13.47744230936982
0 DELTA 1 DEB
1 07069U 73086BM  13292.45531372  .00001134  00000-0  15714-2 0  7800
2 07069 102.7878 017.6865 0266239 111.3495 313.6300 13.47746885937156
0 DELTA 1 DEB
1 07069U 73086BM  13293.80211094  .00001217  00000-0  16811-2 0  7818
2 07069 102.7877 019.4046 0265932 108.4144 008.1465 13.47750358937331
0 DELTA 1 DEB
1 07069U 73086BM  13295.19517715  .00001225  00000-0  16915-2 0  7826
2 07069 102.7877 021.1815 0265598 105.3724 287.1806 13.47754725937524
